GLOBALSTAR M068         
1 32266U 07048D   24232.53558735 -.00000077  00000+0  14899-3 0  9990
2 32266  51.9878 141.7734 0000554 155.1942  16.8033 12.62796812779443
GLOBALSTAR M079         
1 37188U 10054A   24232.55441936 -.00000076  00000+0  15617-3 0  9993
2 37188  52.0064 338.0065 0000591  85.7146 287.0659 12.62262776639047
GLOBALSTAR M074         
1 37189U 10054B   24232.58092924 -.00000076  00000+0  15275-3 0  9996
2 37189  52.0043 337.2945 0000683 108.8078 264.7389 12.62271414639047
GLOBALSTAR M076         
1 37190U 10054C   24232.60752676 -.00000083  00000+0  11773-3 0  9995
2 37190  52.0053 337.3599 0000965  85.4852 287.3094 12.62255315638695
GLOBALSTAR M077         
1 37191U 10054D   24232.43590442 -.00000056  00000+0  26927-3 0  9995
2 37191  52.0074 294.6516 0000505 120.5000 253.0847 12.62262745639040
GLOBALSTAR M075         
1 37192U 10054E   24232.80849980 -.00000085  00000+0  10430-3 0  9995
2 37192  51.9969  19.1693 0000739  89.2064  58.2843 12.62263070638310
GLOBALSTAR M073         
1 37193U 10054F   24232.46240231 -.00000057  00000+0  26182-3 0  9992
2 37193  52.0061 293.8159 0000556 103.6184 269.7791 12.62268338639735
GLOBALSTAR M083         
1 37739U 11033A   24233.20231531 -.00000111  00000+0 -41693-4 0  9999
2 37739  51.9835 240.7029 0000080  35.3657  43.2830 12.62263502609209
GLOBALSTAR M088         
1 37740U 11033B   24232.48367449 -.00000091  00000+0  69587-4 0  9996
2 37740  51.9725 148.6347 0000495  30.2657 141.7294 12.62266306604299
GLOBALSTAR M091         
1 37741U 11033C   24233.12934244 -.00000071  00000+0  18367-3 0  9999
2 37741  51.9991 109.6874 0000537  34.7682 130.9042 12.62265936605426
GLOBALSTAR M085         
1 37742U 11033D   24232.24613064 -.00000088  00000+0  89960-4 0  9992
2 37742  51.9871  63.6790 0000619  63.9036 107.7543 12.62264636605567
GLOBALSTAR M081         
1 37743U 11033E   24232.55565307 -.00000076  00000+0  15540-3 0  9992
2 37743  51.9960  65.3377 0000832  54.1715 324.3326 12.62268234605755
GLOBALSTAR M089         
1 37744U 11033F   24233.18355878 -.00000098  00000+0  31365-4 0  9991
2 37744  51.9949  17.7127 0001109  89.6687  81.9772 12.62267210606920
GLOBALSTAR M084         
1 38040U 11080A   24233.00426904 -.00000083  00000+0  11387-3 0  9998
2 38040  51.9985 245.3866 0000527 109.6881 267.9333 12.62265983584919
GLOBALSTAR M080         
1 38041U 11080B   24233.22907171 -.00000087  00000+0  94442-4 0  9991
2 38041  52.0036 246.2032 0000644  85.3363 354.4130 12.62264361584926
GLOBALSTAR M082         
1 38042U 11080C   24233.22780532 -.00000112  00000+0 -44870-4 0  9992
2 38042  52.0055 201.6196 0000275 265.3036 108.7207 12.62265254585660
GLOBALSTAR M092         
1 38043U 11080D   24232.48849995 -.00000060  00000+0  24345-3 0  9994
2 38043  52.0085 294.2334 0000575 125.7471 247.3007 12.62265411583853
GLOBALSTAR M090         
1 38044U 11080E   24232.22477770 -.00000113  00000+0 -49601-4 0  9998
2 38044  51.9864 198.8704 0000117 333.7010  39.9775 12.62266224585525
GLOBALSTAR M086         
1 38045U 11080F   24233.22093326 -.00000104  00000+0  43178-6 0  9995
2 38045  51.9876 196.3636 0001144  20.6788  82.6133 12.62265796585651
GLOBALSTAR M097         
1 39072U 13005A   24232.35409228 -.00000078  00000+0  14249-3 0  9994
2 39072  52.0043 113.2473 0000662  38.5694 321.5220 12.62269612532694
GLOBALSTAR M093         
1 39073U 13005B   24232.32707578 -.00000064  00000+0  22320-3 0  9995
2 39073  51.9809 107.1112 0000645  34.1162 325.9746 12.62263065532640
GLOBALSTAR M094         
1 39074U 13005C   24233.11907486 -.00000096  00000+0  41342-4 0  9995
2 39074  51.9977  18.7797 0000621  74.2677 285.8258 12.62266998534375
GLOBALSTAR M096         
1 39075U 13005D   24233.21150895 -.00000078  00000+0  14260-3 0  9999
2 39075  52.0074  66.7785 0000645  52.0678 308.0247 12.62269026533636
GLOBALSTAR M078         
1 39076U 13005E   24233.18504423  .00000000  00000+0  58108-3 0  9999
2 39076  51.9866 151.7784 0000489 225.4555 134.6271 12.62275056532116
GLOBALSTAR M095         
1 39077U 13005F   24232.49874445 -.00000092  00000+0  67227-4 0  9992
2 39077  51.9791 151.2149 0000401 320.6170  39.4667 12.62263318532039
GLOBALSTAR M087         
1 52888U 22064A   24232.69775344 -.00000064  00000+0  12214-3 0  9996
2 52888  51.9778 346.9221 0009745 161.8688 198.2561 13.37582196106026
